[
  {
    "OBJECT_NAME": "STARLINK-1060",
    "OBJECT_ID": "19074BE",
    "EPOCH": "2025-11-11T07:15:33.608448",
    "MEAN_MOTION": 15.65683554,
    "ECCENTRICITY": 0.0005848,
    "INCLINATION": 53.0524,
    "RA_OF_ASC_NODE": 358.1115,
    "ARG_OF_PERICENTER": 14.3273,
    "MEAN_ANOMALY": 345.7907,
    "EPHEMERIS_TYPE": 0,
    "CLASSIFICATION_TYPE": "U",
    "NORAD_CAT_ID": 44765,
    "ELEMENT_SET_NO": 999,
    "REV_AT_EPOCH": 33090,
    "BSTAR": 0.0012372,
    "MEAN_MOTION_DOT": 0.00128747,
    "MEAN_MOTION_DDOT": 0.0,
    "TLE_LINE1": "1 44765U 19074BE  25315.30247232  .00128747  00000+0  12372-2 0  9991",
    "TLE_LINE2": "2 44765  53.0524 358.1115 0005848  14.3273 345.7907 15.65683554330904",
    "COMMENT": "Grouped by shell and plane from TLE"
  },
  {
    "OBJECT_NAME": "STARLINK-2340",
    "OBJECT_ID": "21021Y",
    "EPOCH": "2025-11-11T08:00:03.000384",
    "MEAN_MOTION": 15.73557573,
    "ECCENTRICITY": 0.0007622,
    "INCLINATION": 53.0355,
    "RA_OF_ASC_NODE": 357.0689,
    "ARG_OF_PERICENTER": 11.4844,
    "MEAN_ANOMALY": 313.8645,
    "EPHEMERIS_TYPE": 0,
    "CLASSIFICATION_TYPE": "U",
    "NORAD_CAT_ID": 47882,
    "ELEMENT_SET_NO": 999,
    "REV_AT_EPOCH": 587,
    "BSTAR": 0.0017346,
    "MEAN_MOTION_DOT": 0.00254565,
    "MEAN_MOTION_DDOT": 0.0,
    "TLE_LINE1": "1 47882U 21021Y   25315.33336806  .00254565  00000+0  17346-2 0  9992",
    "TLE_LINE2": "2 47882  53.0355 357.0689 0007622  11.4844 313.8645 15.73557573  5877",
    "COMMENT": "Grouped by shell and plane from TLE"
  },
  {
    "OBJECT_NAME": "STARLINK-11242 [DTC]",
    "OBJECT_ID": "24154A",
    "EPOCH": "2025-11-11T07:13:58.139040",
    "MEAN_MOTION": 15.69701676,
    "ECCENTRICITY": 0.0001362,
    "INCLINATION": 53.1592,
    "RA_OF_ASC_NODE": 354.6225,
    "ARG_OF_PERICENTER": 94.0084,
    "MEAN_ANOMALY": 266.109,
    "EPHEMERIS_TYPE": 0,
    "CLASSIFICATION_TYPE": "U",
    "NORAD_CAT_ID": 60903,
    "ELEMENT_SET_NO": 999,
    "REV_AT_EPOCH": 6992,
    "BSTAR": 1.9618e-05,
    "MEAN_MOTION_DOT": 1.787e-05,
    "MEAN_MOTION_DDOT": 0.0,
    "TLE_LINE1": "1 60903U 24154A   25315.30136735  .00001787  00000+0  19618-4 0  9999",
    "TLE_LINE2": "2 60903  53.1592 354.6225 0001362  94.0084 266.1090 15.69701676 69927",
    "COMMENT": "Grouped by shell and plane from TLE"
  },
  {
    "OBJECT_NAME": "STARLINK-11256 [DTC]",
    "OBJECT_ID": "24154B",
    "EPOCH": "2025-11-11T07:06:54.265824",
    "MEAN_MOTION": 15.69695328,
    "ECCENTRICITY": 0.0001252,
    "INCLINATION": 53.1583,
    "RA_OF_ASC_NODE": 354.5906,
    "ARG_OF_PERICENTER": 63.5186,
    "MEAN_ANOMALY": 296.596,
    "EPHEMERIS_TYPE": 0,
    "CLASSIFICATION_TYPE": "U",
    "NORAD_CAT_ID": 60904,
    "ELEMENT_SET_NO": 999,
    "REV_AT_EPOCH": 6992,
    "BSTAR": 3.3886e-05,
    "MEAN_MOTION_DOT": 3.516e-05,
    "MEAN_MOTION_DDOT": 0.0,
    "TLE_LINE1": "1 60904U 24154B   25315.29646141  .00003516  00000+0  33886-4 0  9990",
    "TLE_LINE2": "2 60904  53.1583 354.5906 0001252  63.5186 296.5960 15.69695328 69924",
    "COMMENT": "Grouped by shell and plane from TLE"
  },
  {
    "OBJECT_NAME": "STARLINK-11159 [DTC]",
    "OBJECT_ID": "24154C",
    "EPOCH": "2025-11-11T06:52:55.476480",
    "MEAN_MOTION": 15.69704507,
    "ECCENTRICITY": 0.0001167,
    "INCLINATION": 53.1593,
    "RA_OF_ASC_NODE": 355.2601,
    "ARG_OF_PERICENTER": 77.2893,
    "MEAN_ANOMALY": 282.8256,
    "EPHEMERIS_TYPE": 0,
    "CLASSIFICATION_TYPE": "U",
    "NORAD_CAT_ID": 60905,
    "ELEMENT_SET_NO": 999,
    "REV_AT_EPOCH": 6991,
    "BSTAR": 2.3523e-05,
    "MEAN_MOTION_DOT": 2.261e-05,
    "MEAN_MOTION_DDOT": 0.0,
    "TLE_LINE1": "1 60905U 24154C   25315.28675320  .00002261  00000+0  23523-4 0  9994",
    "TLE_LINE2": "2 60905  53.1593 355.2601 0001167  77.2893 282.8256 15.69704507 69913",
    "COMMENT": "Grouped by shell and plane from TLE"
  },
  {
    "OBJECT_NAME": "STARLINK-11264 [DTC]",
    "OBJECT_ID": "24154D",
    "EPOCH": "2025-11-11T06:45:51.846048",
    "MEAN_MOTION": 15.69703447,
    "ECCENTRICITY": 0.0001352,
    "INCLINATION": 53.1586,
    "RA_OF_ASC_NODE": 355.2271,
    "ARG_OF_PERICENTER": 104.4588,
    "MEAN_ANOMALY": 255.658,
    "EPHEMERIS_TYPE": 0,
    "CLASSIFICATION_TYPE": "U",
    "NORAD_CAT_ID": 60906,
    "ELEMENT_SET_NO": 999,
    "REV_AT_EPOCH": 6991,
    "BSTAR": 2.5207000000000004e-05,
    "MEAN_MOTION_DOT": 2.465e-05,
    "MEAN_MOTION_DDOT": 0.0,
    "TLE_LINE1": "1 60906U 24154D   25315.28185007  .00002465  00000+0  25207-4 0  9990",
    "TLE_LINE2": "2 60906  53.1586 355.2271 0001352 104.4588 255.6580 15.69703447 69919",
    "COMMENT": "Grouped by shell and plane from TLE"
  },
  {
    "OBJECT_NAME": "STARLINK-11226 [DTC]",
    "OBJECT_ID": "24154E",
    "EPOCH": "2025-11-11T06:38:47.879520",
    "MEAN_MOTION": 15.69699544,
    "ECCENTRICITY": 9.62e-05,
    "INCLINATION": 53.1591,
    "RA_OF_ASC_NODE": 355.1948,
    "ARG_OF_PERICENTER": 93.9831,
    "MEAN_ANOMALY": 266.1297,
    "EPHEMERIS_TYPE": 0,
    "CLASSIFICATION_TYPE": "U",
    "NORAD_CAT_ID": 60907,
    "ELEMENT_SET_NO": 999,
    "REV_AT_EPOCH": 6991,
    "BSTAR": 2.8199999999999998e-05,
    "MEAN_MOTION_DOT": 2.828e-05,
    "MEAN_MOTION_DDOT": 0.0,
    "TLE_LINE1": "1 60907U 24154E   25315.27694305  .00002828  00000+0  28200-4 0  9995",
    "TLE_LINE2": "2 60907  53.1591 355.1948 0000962  93.9831 266.1297 15.69699544 69919",
    "COMMENT": "Grouped by shell and plane from TLE"
  },
  {
    "OBJECT_NAME": "STARLINK-11229 [DTC]",
    "OBJECT_ID": "24154F",
    "EPOCH": "2025-11-11T06:31:44.239584",
    "MEAN_MOTION": 15.69697307,
    "ECCENTRICITY": 0.0001019,
    "INCLINATION": 53.1596,
    "RA_OF_ASC_NODE": 355.1589,
    "ARG_OF_PERICENTER": 45.4554,
    "MEAN_ANOMALY": 314.6547,
    "EPHEMERIS_TYPE": 0,
    "CLASSIFICATION_TYPE": "U",
    "NORAD_CAT_ID": 60908,
    "ELEMENT_SET_NO": 999,
    "REV_AT_EPOCH": 6991,
    "BSTAR": 1.5066e-05,
    "MEAN_MOTION_DOT": 1.236e-05,
    "MEAN_MOTION_DDOT": 0.0,
    "TLE_LINE1": "1 60908U 24154F   25315.27203981  .00001236  00000+0  15066-4 0  9990",
    "TLE_LINE2": "2 60908  53.1596 355.1589 0001019  45.4554 314.6547 15.69697307 69916",
    "COMMENT": "Grouped by shell and plane from TLE"
  },
  {
    "OBJECT_NAME": "STARLINK-11265 [DTC]",
    "OBJECT_ID": "24154G",
    "EPOCH": "2025-11-11T06:59:59.582112",
    "MEAN_MOTION": 15.69701623,
    "ECCENTRICITY": 0.0001049,
    "INCLINATION": 53.1585,
    "RA_OF_ASC_NODE": 355.2914,
    "ARG_OF_PERICENTER": 75.0374,
    "MEAN_ANOMALY": 285.076,
    "EPHEMERIS_TYPE": 0,
    "CLASSIFICATION_TYPE": "U",
    "NORAD_CAT_ID": 60909,
    "ELEMENT_SET_NO": 999,
    "REV_AT_EPOCH": 6991,
    "BSTAR": 1.6917e-05,
    "MEAN_MOTION_DOT": 1.461e-05,
    "MEAN_MOTION_DDOT": 0.0,
    "TLE_LINE1": "1 60909U 24154G   25315.29166183  .00001461  00000+0  16917-4 0  9991",
    "TLE_LINE2": "2 60909  53.1585 355.2914 0001049  75.0374 285.0760 15.69701623 69915",
    "COMMENT": "Grouped by shell and plane from TLE"
  },
  {
    "OBJECT_NAME": "STARLINK-11250 [DTC]",
    "OBJECT_ID": "24154H",
    "EPOCH": "2025-11-11T06:24:40.097664",
    "MEAN_MOTION": 15.69698538,
    "ECCENTRICITY": 0.0001168,
    "INCLINATION": 53.159,
    "RA_OF_ASC_NODE": 355.1288,
    "ARG_OF_PERICENTER": 87.5735,
    "MEAN_ANOMALY": 272.5417,
    "EPHEMERIS_TYPE": 0,
    "CLASSIFICATION_TYPE": "U",
    "NORAD_CAT_ID": 60910,
    "ELEMENT_SET_NO": 999,
    "REV_AT_EPOCH": 6991,
    "BSTAR": 2.1444e-05,
    "MEAN_MOTION_DOT": 2.009e-05,
    "MEAN_MOTION_DDOT": 0.0,
    "TLE_LINE1": "1 60910U 24154H   25315.26713076  .00002009  00000+0  21444-4 0  9999",
    "TLE_LINE2": "2 60910  53.1590 355.1288 0001168  87.5735 272.5417 15.69698538 69917",
    "COMMENT": "Grouped by shell and plane from TLE"
  },
  {
    "OBJECT_NAME": "STARLINK-11190 [DTC]",
    "OBJECT_ID": "24154J",
    "EPOCH": "2025-11-11T03:14:14.169408",
    "MEAN_MOTION": 15.69715234,
    "ECCENTRICITY": 0.0001278,
    "INCLINATION": 53.1604,
    "RA_OF_ASC_NODE": 355.7254,
    "ARG_OF_PERICENTER": 71.6494,
    "MEAN_ANOMALY": 288.4663,
    "EPHEMERIS_TYPE": 0,
    "CLASSIFICATION_TYPE": "U",
    "NORAD_CAT_ID": 60911,
    "ELEMENT_SET_NO": 999,
    "REV_AT_EPOCH": 6988,
    "BSTAR": 3.6925000000000006e-06,
    "MEAN_MOTION_DOT": -1.41e-06,
    "MEAN_MOTION_DDOT": 0.0,
    "TLE_LINE1": "1 60911U 24154J   25315.13488622 -.00000141  00000+0  36925-5 0  9999",
    "TLE_LINE2": "2 60911  53.1604 355.7254 0001278  71.6494 288.4663 15.69715234 69889",
    "COMMENT": "Grouped by shell and plane from TLE"
  },
  {
    "OBJECT_NAME": "STARLINK-11225 [DTC]",
    "OBJECT_ID": "24154K",
    "EPOCH": "2025-11-11T06:10:32.529216",
    "MEAN_MOTION": 15.69701164,
    "ECCENTRICITY": 0.0001262,
    "INCLINATION": 53.1582,
    "RA_OF_ASC_NODE": 355.0607,
    "ARG_OF_PERICENTER": 45.3618,
    "MEAN_ANOMALY": 314.7503,
    "EPHEMERIS_TYPE": 0,
    "CLASSIFICATION_TYPE": "U",
    "NORAD_CAT_ID": 60912,
    "ELEMENT_SET_NO": 999,
    "REV_AT_EPOCH": 6990,
    "BSTAR": 2.0084e-05,
    "MEAN_MOTION_DOT": 1.844e-05,
    "MEAN_MOTION_DDOT": 0.0,
    "TLE_LINE1": "1 60912U 24154K   25315.25732094  .00001844  00000+0  20084-4 0  9996",
    "TLE_LINE2": "2 60912  53.1582 355.0607 0001262  45.3618 314.7503 15.69701164 69905",
    "COMMENT": "Grouped by shell and plane from TLE"
  }
]